SL-14 R/B               
1 16792U 86046B   26075.74488263  .00000458  00000+0  49981-4 0  9992
2 16792  82.4784  73.5131 0022477 201.0661 158.9632 14.85597408127452
SL-14 R/B               
1 16882U 86055B   26075.89584068  .00000406  00000+0  43944-4 0  9994
2 16882  82.5186 119.9001 0017653 311.5573 221.6654 14.85649079120434
AJISAI (EGS)            
1 16908U 86061A   26075.86300868 -.00000090  00000+0  50466-4 0  9998
2 16908  50.0087  71.2885 0011293 305.4881 124.7367 12.44515702468898
SL-14 R/B               
1 17567U 87024B   26075.10240684  .00000494  00000+0  53490-4 0  9993
2 17567  82.5243  86.7345 0016884 236.8486 123.1111 14.86138504 89084
COSMOS 1833             
1 17589U 87027A   26075.86845605 -.00000211  00000+0 -87049-4 0  9993
2 17589  70.9206 310.9314 0023904 204.2910 155.7086 14.13052659 11339
SL-16 R/B               
1 17590U 87027B   26075.75073133 -.00000008  00000+0  19726-4 0  9992
2 17590  70.9993 261.6140 0003142 127.0539 233.0873 14.17166729 16342
SL-14 R/B               
1 17912U 87038B   26075.57223310  .00000410  00000+0  44614-4 0  9996
2 17912  82.4990 290.3231 0020230 138.5249 221.7507 14.85375454 80258
COSMOS 1844             
1 17973U 87041A   26075.82529127 -.00000067  00000+0 -95499-5 0  9998
2 17973  70.9006  19.1247 0030383   7.4353 352.7213 14.14551090  4595
SL-14 R/B               
1 18153U 87055B   26075.68262293  .00000470  00000+0  51332-4 0  9999
2 18153  82.5027 342.4425 0020505 355.0814   5.0197 14.85637384 70970
COSMOS 1867             
1 18187U 87060A   26075.84659278 -.00000022  00000+0  29278-4 0  9991
2 18187  65.0100 286.6623 0014596 279.0761  80.8671 14.31504103 20968
SL-14 R/B               
1 18749U 88001B   26075.74579306  .00000501  00000+0  55124-4 0  9993
2 18749  82.5160 188.7253 0017303 210.9924 149.0273 14.85536432 43079
COSMOS 1933             
1 18958U 88020A   26075.84325661  .00003556  00000+0  17317-3 0  9994
2 18958  82.5103 243.8323 0004433 158.9052 201.2366 15.18054457 51311
