CCSDS_OMM_VERS = 2.0
CREATION_DATE  = 
ORIGINATOR     = 

OBJECT_NAME    = SL-14 R/B
OBJECT_ID      = 1986-046B
CENTER_NAME    = EARTH
REF_FRAME      = TEME
TIME_SYSTEM    = UTC
MEAN_ELEMENT_THEORY = SGP/SGP4

EPOCH          = 2026-03-16T17:52:37.859232
MEAN_MOTION    = 14.85597408
ECCENTRICITY   = .0022477
INCLINATION    = 82.4784
RA_OF_ASC_NODE = 73.5131
ARG_OF_PERICENTER = 201.0661
MEAN_ANOMALY   = 158.9632

EPHEMERIS_TYPE = 0
CLASSIFICATION_TYPE = U
NORAD_CAT_ID   = 16792
ELEMENT_SET_NO = 999
REV_AT_EPOCH   = 12745
BSTAR          = .49981E-4
MEAN_MOTION_DOT = .458E-5
MEAN_MOTION_DDOT = 0

CCSDS_OMM_VERS = 2.0
CREATION_DATE  = 
ORIGINATOR     = 

OBJECT_NAME    = SL-14 R/B
OBJECT_ID      = 1986-055B
CENTER_NAME    = EARTH
REF_FRAME      = TEME
TIME_SYSTEM    = UTC
MEAN_ELEMENT_THEORY = SGP/SGP4

EPOCH          = 2026-03-16T21:30:00.634752
MEAN_MOTION    = 14.85649079
ECCENTRICITY   = .0017653
INCLINATION    = 82.5186
RA_OF_ASC_NODE = 119.9001
ARG_OF_PERICENTER = 311.5573
MEAN_ANOMALY   = 221.6654

EPHEMERIS_TYPE = 0
CLASSIFICATION_TYPE = U
NORAD_CAT_ID   = 16882
ELEMENT_SET_NO = 999
REV_AT_EPOCH   = 12043
BSTAR          = .43944E-4
MEAN_MOTION_DOT = .406E-5
MEAN_MOTION_DDOT = 0

CCSDS_OMM_VERS = 2.0
CREATION_DATE  = 
ORIGINATOR     = 

OBJECT_NAME    = AJISAI (EGS)
OBJECT_ID      = 1986-061A
CENTER_NAME    = EARTH
REF_FRAME      = TEME
TIME_SYSTEM    = UTC
MEAN_ELEMENT_THEORY = SGP/SGP4

EPOCH          = 2026-03-16T20:42:43.949952
MEAN_MOTION    = 12.44515702
ECCENTRICITY   = .0011293
INCLINATION    = 50.0087
RA_OF_ASC_NODE = 71.2885
ARG_OF_PERICENTER = 305.4881
MEAN_ANOMALY   = 124.7367

EPHEMERIS_TYPE = 0
CLASSIFICATION_TYPE = U
NORAD_CAT_ID   = 16908
ELEMENT_SET_NO = 999
REV_AT_EPOCH   = 46889
BSTAR          = .50466E-4
MEAN_MOTION_DOT = -.9E-6
MEAN_MOTION_DDOT = 0

CCSDS_OMM_VERS = 2.0
CREATION_DATE  = 
ORIGINATOR     = 

OBJECT_NAME    = SL-14 R/B
OBJECT_ID      = 1987-024B
CENTER_NAME    = EARTH
REF_FRAME      = TEME
TIME_SYSTEM    = UTC
MEAN_ELEMENT_THEORY = SGP/SGP4

EPOCH          = 2026-03-16T02:27:27.950976
MEAN_MOTION    = 14.86138504
ECCENTRICITY   = .00168844
INCLINATION    = 82.5243
RA_OF_ASC_NODE = 86.7345
ARG_OF_PERICENTER = 236.8486
MEAN_ANOMALY   = 123.1111

EPHEMERIS_TYPE = 0
CLASSIFICATION_TYPE = U
NORAD_CAT_ID   = 17567
ELEMENT_SET_NO = 999
REV_AT_EPOCH   = 8908
BSTAR          = .53489665E-4
MEAN_MOTION_DOT = .494E-5
MEAN_MOTION_DDOT = 0

CCSDS_OMM_VERS = 2.0
CREATION_DATE  = 
ORIGINATOR     = 

OBJECT_NAME    = COSMOS 1833
OBJECT_ID      = 1987-027A
CENTER_NAME    = EARTH
REF_FRAME      = TEME
TIME_SYSTEM    = UTC
MEAN_ELEMENT_THEORY = SGP/SGP4

EPOCH          = 2026-03-16T20:50:34.602720
MEAN_MOTION    = 14.13052659
ECCENTRICITY   = .0023904
INCLINATION    = 70.9206
RA_OF_ASC_NODE = 310.9314
ARG_OF_PERICENTER = 204.2910
MEAN_ANOMALY   = 155.7086

EPHEMERIS_TYPE = 0
CLASSIFICATION_TYPE = U
NORAD_CAT_ID   = 17589
ELEMENT_SET_NO = 999
REV_AT_EPOCH   = 1133
BSTAR          = -.87049E-4
MEAN_MOTION_DOT = -.211E-5
MEAN_MOTION_DDOT = 0

CCSDS_OMM_VERS = 2.0
CREATION_DATE  = 
ORIGINATOR     = 

OBJECT_NAME    = SL-16 R/B
OBJECT_ID      = 1987-027B
CENTER_NAME    = EARTH
REF_FRAME      = TEME
TIME_SYSTEM    = UTC
MEAN_ELEMENT_THEORY = SGP/SGP4

EPOCH          = 2026-03-16T18:01:03.186912
MEAN_MOTION    = 14.17166729
ECCENTRICITY   = .0003142
INCLINATION    = 70.9993
RA_OF_ASC_NODE = 261.6140
ARG_OF_PERICENTER = 127.0539
MEAN_ANOMALY   = 233.0873

EPHEMERIS_TYPE = 0
CLASSIFICATION_TYPE = U
NORAD_CAT_ID   = 17590
ELEMENT_SET_NO = 999
REV_AT_EPOCH   = 1634
BSTAR          = .19726E-4
MEAN_MOTION_DOT = -.8E-7
MEAN_MOTION_DDOT = 0

CCSDS_OMM_VERS = 2.0
CREATION_DATE  = 
ORIGINATOR     = 

OBJECT_NAME    = SL-14 R/B
OBJECT_ID      = 1987-038B
CENTER_NAME    = EARTH
REF_FRAME      = TEME
TIME_SYSTEM    = UTC
MEAN_ELEMENT_THEORY = SGP/SGP4

EPOCH          = 2026-03-16T13:44:00.939840
MEAN_MOTION    = 14.85375454
ECCENTRICITY   = .002023
INCLINATION    = 82.4990
RA_OF_ASC_NODE = 290.3231
ARG_OF_PERICENTER = 138.5249
MEAN_ANOMALY   = 221.7507

EPHEMERIS_TYPE = 0
CLASSIFICATION_TYPE = U
NORAD_CAT_ID   = 17912
ELEMENT_SET_NO = 999
REV_AT_EPOCH   = 8025
BSTAR          = .44614E-4
MEAN_MOTION_DOT = .41E-5
MEAN_MOTION_DDOT = 0

CCSDS_OMM_VERS = 2.0
CREATION_DATE  = 
ORIGINATOR     = 

OBJECT_NAME    = COSMOS 1844
OBJECT_ID      = 1987-041A
CENTER_NAME    = EARTH
REF_FRAME      = TEME
TIME_SYSTEM    = UTC
MEAN_ELEMENT_THEORY = SGP/SGP4

EPOCH          = 2026-03-16T19:48:25.165728
MEAN_MOTION    = 14.14551090
ECCENTRICITY   = .0030383
INCLINATION    = 70.9006
RA_OF_ASC_NODE = 19.1247
ARG_OF_PERICENTER = 7.4353
MEAN_ANOMALY   = 352.7213

EPHEMERIS_TYPE = 0
CLASSIFICATION_TYPE = U
NORAD_CAT_ID   = 17973
ELEMENT_SET_NO = 999
REV_AT_EPOCH   = 459
BSTAR          = -.95499E-5
MEAN_MOTION_DOT = -.67E-6
MEAN_MOTION_DDOT = 0

CCSDS_OMM_VERS = 2.0
CREATION_DATE  = 
ORIGINATOR     = 

OBJECT_NAME    = SL-14 R/B
OBJECT_ID      = 1987-055B
CENTER_NAME    = EARTH
REF_FRAME      = TEME
TIME_SYSTEM    = UTC
MEAN_ELEMENT_THEORY = SGP/SGP4

EPOCH          = 2026-03-16T16:22:58.621152
MEAN_MOTION    = 14.85637384
ECCENTRICITY   = .0020505
INCLINATION    = 82.5027
RA_OF_ASC_NODE = 342.4425
ARG_OF_PERICENTER = 355.0814
MEAN_ANOMALY   = 5.0197

EPHEMERIS_TYPE = 0
CLASSIFICATION_TYPE = U
NORAD_CAT_ID   = 18153
ELEMENT_SET_NO = 999
REV_AT_EPOCH   = 7097
BSTAR          = .51332E-4
MEAN_MOTION_DOT = .47E-5
MEAN_MOTION_DDOT = 0

CCSDS_OMM_VERS = 2.0
CREATION_DATE  = 
ORIGINATOR     = 

OBJECT_NAME    = COSMOS 1867
OBJECT_ID      = 1987-060A
CENTER_NAME    = EARTH
REF_FRAME      = TEME
TIME_SYSTEM    = UTC
MEAN_ELEMENT_THEORY = SGP/SGP4

EPOCH          = 2026-03-16T20:19:05.616192
MEAN_MOTION    = 14.31504103
ECCENTRICITY   = .0014596
INCLINATION    = 65.0100
RA_OF_ASC_NODE = 286.6623
ARG_OF_PERICENTER = 279.0761
MEAN_ANOMALY   = 80.8671

EPHEMERIS_TYPE = 0
CLASSIFICATION_TYPE = U
NORAD_CAT_ID   = 18187
ELEMENT_SET_NO = 999
REV_AT_EPOCH   = 2096
BSTAR          = .29278E-4
MEAN_MOTION_DOT = -.22E-6
MEAN_MOTION_DDOT = 0

CCSDS_OMM_VERS = 2.0
CREATION_DATE  = 
ORIGINATOR     = 

OBJECT_NAME    = SL-14 R/B
OBJECT_ID      = 1988-001B
CENTER_NAME    = EARTH
REF_FRAME      = TEME
TIME_SYSTEM    = UTC
MEAN_ELEMENT_THEORY = SGP/SGP4

EPOCH          = 2026-03-16T17:53:56.520384
MEAN_MOTION    = 14.85536432
ECCENTRICITY   = .0017303
INCLINATION    = 82.5160
RA_OF_ASC_NODE = 188.7253
ARG_OF_PERICENTER = 210.9924
MEAN_ANOMALY   = 149.0273

EPHEMERIS_TYPE = 0
CLASSIFICATION_TYPE = U
NORAD_CAT_ID   = 18749
ELEMENT_SET_NO = 999
REV_AT_EPOCH   = 4307
BSTAR          = .55124E-4
MEAN_MOTION_DOT = .501E-5
MEAN_MOTION_DDOT = 0

CCSDS_OMM_VERS = 2.0
CREATION_DATE  = 
ORIGINATOR     = 

OBJECT_NAME    = COSMOS 1933
OBJECT_ID      = 1988-020A
CENTER_NAME    = EARTH
REF_FRAME      = TEME
TIME_SYSTEM    = UTC
MEAN_ELEMENT_THEORY = SGP/SGP4

EPOCH          = 2026-03-16T20:14:17.371104
MEAN_MOTION    = 15.18054457
ECCENTRICITY   = .0004433
INCLINATION    = 82.5103
RA_OF_ASC_NODE = 243.8323
ARG_OF_PERICENTER = 158.9052
MEAN_ANOMALY   = 201.2366

EPHEMERIS_TYPE = 0
CLASSIFICATION_TYPE = U
NORAD_CAT_ID   = 18958
ELEMENT_SET_NO = 999
REV_AT_EPOCH   = 5131
BSTAR          = .17317E-3
MEAN_MOTION_DOT = .3556E-4
MEAN_MOTION_DDOT = 0

